STARLINK-2022           
1 47643U 21012Z   23300.38489410  .00027584  00000+0  18605-2 0  9992
2 47643  53.0546 331.6322 0001440 105.2630 254.8518 15.06459144149472
